[{"OBJECT_NAME":"STARLINK-35977","OBJECT_ID":"2025-270S","EPOCH":"2026-03-09T23:19:20.348256","MEAN_MOTION":15.27607303,"ECCENTRICITY":0.00013156,"INCLINATION":43.002,"RA_OF_ASC_NODE":54.1796,"ARG_OF_PERICENTER":237.2277,"MEAN_ANOMALY":122.8448,"EPHEMERIS_TYPE":0,"CLASSIFICATION_TYPE":"U","NORAD_CAT_ID":66604,"ELEMENT_SET_NO":999,"REV_AT_EPOCH":1775,"BSTAR":0.001399044,"MEAN_MOTION_DOT":0.0003847,"MEAN_MOTION_DDOT":0},{"OBJECT_NAME":"OKEAN-1","OBJECT_ID":"1988-056A","EPOCH":"2026-03-09T21:19:04.260000","MEAN_MOTION":15.31672069,"ECCENTRICITY":0.00129431,"INCLINATION":82.4671,"RA_OF_ASC_NODE":262.7586,"ARG_OF_PERICENTER":168.0696,"MEAN_ANOMALY":192.0855,"EPHEMERIS_TYPE":0,"CLASSIFICATION_TYPE":"U","NORAD_CAT_ID":19274,"ELEMENT_SET_NO":999,"REV_AT_EPOCH":3511,"BSTAR":0.00038371192,"MEAN_MOTION_DOT":0.00011798,"MEAN_MOTION_DDOT":0}]
